     2.100          NAVIGATION                              RINEX VERSION / TYPE
fic2rin                                 06/27/2016 00:12:00 PGM / RUN BY / DATE
                                                            END OF HEADER
27 16  6 26 14  0  0.0  .107862055302D-03  .432009983342D-11  .000000000000D+00
     .820000000000D+02  .126562500000D+02  .455590405741D-08 -.525060199551D-01
     .536441802979D-06  .375052564777D-02  .417605042458D-05  .515364114761D+04
     .504000000000D+05  .707805156708D-07  .244172903545D+01  .000000000000D+00
     .971746947561D+00  .301750000000D+03  .315271520804D+00 -.834641909043D-08
     .425017703693D-10  .100000000000D+01  .190300000000D+04  .000000000000D+00
     .240000000000D+01  .000000000000D+00  .139698386192D-08  .820000000000D+02
     .432060000000D+05  .400000000000D+01
28 16  6 26 14  0  0.0  .532917678356D-03  .272848410532D-11  .000000000000D+00
     .650000000000D+02  .275312500000D+02  .391980613280D-08  .765009067435D+00
     .148266553879D-05  .197340674931D-01  .103283673525D-04  .515363637733D+04
     .504000000000D+05 -.279396772385D-06  .147522896500D+01 -.558793544769D-07
     .989327122314D+00  .202937500000D+03 -.161471809707D+01 -.815141096756D-08
    -.257153568621D-10  .100000000000D+01  .190300000000D+04  .000000000000D+00
     .240000000000D+01  .000000000000D+00 -.111758708954D-07  .650000000000D+02
     .432060000000D+05  .400000000000D+01
29 16  6 26 14  0  0.0  .656298827380D-03 -.454747350886D-12  .000000000000D+00
     .780000000000D+02  .659375000000D+01  .426982071231D-08  .220032877143D+01
     .335276126862D-06  .879349070601D-03  .494718551636D-05  .515355298233D+04
     .504000000000D+05 -.260770320892D-07  .250155287592D+01  .558793544769D-07
     .977816770222D+00  .293968750000D+03 -.124978109703D+00 -.811819529828D-08
     .353586156854D-10  .100000000000D+01  .190300000000D+04  .000000000000D+00
     .240000000000D+01  .000000000000D+00 -.102445483208D-07  .780000000000D+02
     .432060000000D+05  .400000000000D+01
31 16  6 26 14  0  0.0  .261951237917D-03 -.193267624127D-11  .000000000000D+00
     .150000000000D+02 -.108750000000D+02  .449304429619D-08 -.300016717390D+01
    -.450760126114D-06  .816016993485D-02  .796280801296D-05  .515376919556D+04
     .504000000000D+05 -.137835741043D-06  .384160551132D+00  .968575477600D-07
     .971151933428D+00  .231781250000D+03 -.395274626512D+00 -.787175646168D-08
    -.300012496725D-09  .100000000000D+01  .190300000000D+04  .000000000000D+00
     .240000000000D+01  .000000000000D+00 -.135041773319D-07  .150000000000D+02
     .432060000000D+05  .400000000000D+01
27 16  6 26 13 59 44.0  .107862055302D-03  .432009983342D-11  .000000000000D+00
     .200000000000D+01  .126562500000D+02  .455590405741D-08 -.548391314471D-01
     .536441802979D-06  .375051784795D-02  .417605042458D-05  .515364114380D+04
     .503840000000D+05  .707805156708D-07  .244172918467D+01  .000000000000D+00
     .971746947561D+00  .301750000000D+03  .315270932711D+00 -.834641909043D-08
     .425017703693D-10  .100000000000D+01  .190300000000D+04  .000000000000D+00
     .240000000000D+01  .000000000000D+00  .139698386192D-08  .200000000000D+01
     .496260000000D+05  .400000000000D+01
 6 16  6 26 13 59 44.0  .210217665881D-03  .534328137292D-11  .000000000000D+00
     .310000000000D+02 -.811875000000D+02  .449411576939D-08 -.187713900903D+01
    -.427849590778D-05  .378972617909D-03  .695139169693D-05  .515371743774D+04
     .503840000000D+05  .800937414169D-07 -.279243842132D+01  .484287738800D-07
     .964714467750D+00  .250000000000D+03 -.136081748186D+01 -.820355599675D-08
    -.261439461432D-09  .100000000000D+01  .190300000000D+04  .000000000000D+00
     .240000000000D+01  .000000000000D+00  .419095158577D-08  .310000000000D+02
     .496560000000D+05  .400000000000D+01
 6 16  6 26 15 59 44.0  .210256315768D-03  .534328137292D-11  .000000000000D+00
     .410000000000D+02 -.846250000000D+02  .453911764390D-08 -.829124315190D+00
    -.433623790741D-05  .378897530027D-03  .710785388947D-05  .515371591759D+04
     .575840000000D+05  .484287738800D-07 -.279249729938D+01  .987201929092D-07
     .964712637639D+00  .245031250000D+03 -.135867747995D+01 -.817462622028D-08
    -.283226083217D-09  .100000000000D+01  .190300000000D+04  .000000000000D+00
     .240000000000D+01  .000000000000D+00  .419095158577D-08  .410000000000D+02
     .504060000000D+05  .400000000000D+01
27 16  6 26 15 59 44.0  .107892788947D-03  .432009983342D-11  .000000000000D+00
     .400000000000D+01  .173750000000D+02  .461054919074D-08  .995219911407D+00
     .114180147648D-05  .375101470854D-02  .433623790741D-05  .515364245415D+04
     .575840000000D+05  .558793544769D-07  .244166930889D+01  .502914190292D-07
     .971747263551D+00  .298000000000D+03  .315413031796D+00 -.832070373357D-08
     .300012496725D-10  .100000000000D+01  .190300000000D+04  .000000000000D+00
     .240000000000D+01  .000000000000D+00  .139698386192D-08  .400000000000D+01
     .504060000000D+05  .400000000000D+01
 1 16  6 26 16  0  0.0  .249226577580D-04  .125055521494D-11  .000000000000D+00
     .960000000000D+02 -.768437500000D+02  .445911431144D-08 -.108971609093D+01
    -.405870378017D-05  .560823362321D-02  .738911330700D-05  .515364106750D+04
     .576000000000D+05  .141561031342D-06 -.278407354937D+01 -.223517417908D-07
     .964885057164D+00  .240375000000D+03  .481129958983D+00 -.808712257540D-08
    -.332871008271D-09  .100000000000D+01  .190300000000D+04  .000000000000D+00
     .240000000000D+01  .000000000000D+00  .512227416039D-08  .960000000000D+02
     .504060000000D+05  .400000000000D+01
 2 16  6 26 16  0  0.0  .582460779697D-03 -.375166564481D-11  .000000000000D+00
     .670000000000D+02 -.737812500000D+02  .520164524083D-08 -.713446792025D+00
    -.374577939510D-05  .157965519466D-01  .649318099022D-05  .515358332443D+04
     .576000000000D+05  .149011611938D-07 -.283023232181D+01  .318512320518D-06
     .943679736300D+00  .247218750000D+03 -.210678320192D+01 -.874750722593D-08
    -.303941231801D-09  .100000000000D+01  .190300000000D+04  .000000000000D+00
     .240000000000D+01  .000000000000D+00 -.200234353542D-07  .670000000000D+02
     .504060000000D+05  .400000000000D+01
 3 16  6 26 16  0  0.0 -.706687569618D-04 -.318323145621D-11  .000000000000D+00
     .940000000000D+02  .200000000000D+01  .422267589140D-08 -.128180241347D+00
     .163912773132D-06  .214900122955D-03  .115260481834D-04  .515367997551D+04
     .576000000000D+05 -.141561031342D-06 -.174263239454D+01  .800937414169D-07
     .958975156319D+00  .156968750000D+03 -.161999295688D+01 -.779818196844D-08
     .172507185617D-09  .100000000000D+01  .190300000000D+04  .000000000000D+00
     .240000000000D+01  .000000000000D+00  .186264514923D-08  .940000000000D+02
     .504060000000D+05  .400000000000D+01
 4 16  6 26 16  0  0.0 -.258295796812D-03 -.454747350886D-12  .000000000000D+00
     .290000000000D+02  .291562500000D+02  .525629037416D-08  .210030521341D+01
     .146217644215D-05  .850400188938D-02  .915303826332D-05  .515365990448D+04
     .576000000000D+05 -.141561031342D-06  .142194135180D+01 -.165775418282D-06
     .983097268119D+00  .216343750000D+03  .898793667484D+00 -.773782231136D-08
     .735744932444D-10  .100000000000D+01  .190300000000D+04  .000000000000D+00
     .240000000000D+01  .630000000000D+02 -.195577740669D-07  .290000000000D+02
     .504060000000D+05  .400000000000D+01
 5 16  6 26 16  0  0.0 -.109884887934D-03  .284217094304D-11  .000000000000D+00
     .400000000000D+02 -.179062500000D+02  .458019078333D-08  .177164366926D+01
    -.823289155960D-06  .453854026273D-02  .117048621178D-04  .515354899216D+04
     .576000000000D+05 -.353902578354D-07 -.175493955129D+01 -.223517417908D-07
     .946039863500D+00  .148156250000D+03  .453202106761D+00 -.806140721854D-08
     .875036448780D-10  .100000000000D+01  .190300000000D+04  .000000000000D+00
     .240000000000D+01  .000000000000D+00 -.107102096081D-07  .400000000000D+02
     .504060000000D+05  .400000000000D+01
 7 16  6 26 16  0  0.0  .445959158242D-03 -.250111042988D-11  .000000000000D+00
     .176000000000D+03 -.148750000000D+02  .458304804520D-08 -.180776658521D+01
    -.106543302536D-05  .965056510177D-02  .741891562939D-05  .515363999557D+04
     .576000000000D+05  .139698386192D-06  .374622180426D+00 -.335276126862D-07
     .966337872331D+00  .236156250000D+03 -.266783311581D+01 -.808069373619D-08
    -.163578242262D-09  .100000000000D+01  .190300000000D+04  .000000000000D+00
     .240000000000D+01  .000000000000D+00 -.111758708954D-07  .176000000000D+03
     .504060000000D+05  .400000000000D+01
 8 16  6 26 16  0  0.0 -.404911115766D-04 -.136424205266D-11  .000000000000D+00
     .240000000000D+02  .134375000000D+02  .477448459073D-08  .186019290686D+01
     .784173607826D-06  .170200376306D-02  .402517616749D-05  .515370766640D+04
     .576000000000D+05  .428408384323D-07  .243873717926D+01 -.353902578354D-07
     .963655183398D+00  .297718750000D+03 -.105491165769D+01 -.835356224511D-08
     .435732435719D-10  .100000000000D+01  .190300000000D+04  .000000000000D+00
     .240000000000D+01  .000000000000D+00  .465661287308D-08  .240000000000D+02
     .504060000000D+05  .400000000000D+01
 9 16  6 26 16  0  0.0  .156074296683D-03  .727595761418D-11  .000000000000D+00
     .430000000000D+02  .467812500000D+02  .487877464912D-08  .610190252348D+00
     .253692269325D-05  .535086961463D-03  .615231692791D-05  .515354910469D+04
     .576000000000D+05  .353902578354D-07 -.703238255622D+00 -.167638063431D-07
     .954857160422D+00  .255500000000D+03  .237963618270D+01 -.833927593574D-08
     .297512392585D-09  .100000000000D+01  .190300000000D+04  .000000000000D+00
     .240000000000D+01  .000000000000D+00  .139698386192D-08  .430000000000D+02
     .504060000000D+05  .400000000000D+01
